EUTELSAT QUANTUM        
1 49056U 21069B   25356.84330186  .00000147  00000+0  00000+0 0  9996
2 49056   0.0098   3.3504 0003483 276.9315 162.6574  1.00272877 16168
EUTELSAT KONNECT VHTS   
1 53765U 22110A   25356.62039372  .00000038  00000+0  00000+0 0  9994
2 53765   0.0613  98.5283 0002371 147.5122  71.4567  1.00268229  5058
EUTELSAT HOTBIRD 13F    
1 54048U 22134A   25355.90910977  .00000109  00000+0  00000+0 0  9993
2 54048   0.0525 292.4073 0002280  71.4737  67.1177  1.00271763 11607
EUTELSAT HOTBIRD 13G    
1 54225U 22146A   25356.16850354  .00000111  00000+0  00000+0 0  9997
2 54225   0.0535 228.1743 0000624 347.6873 308.7697  1.00287196  5694
EUTELSAT 10B            
1 54259U 22157A   25356.88030709  .00000090  00000+0  00000+0 0  9995
2 54259   0.0606  96.1214 0000732   2.1713 320.3187  1.00272796 11255
EUTELSAT 36D            
1 59346U 24059A   25356.91228898  .00000000  00000+0  00000+0 0  9993
2 59346   0.0224  32.3182 0000338 333.4824  90.1956  1.00272062  6384
